NORAD_CAT_ID,OBJECT_NAME,OBJECT_TYPE,EPOCH,MEAN_MOTION,ECCENTRICITY,INCLINATION,RA_OF_ASC_NODE,ARG_OF_PERICENTER,MEAN_ANOMALY,BSTAR,MEAN_MOTION_DOT,MEAN_MOTION_DDOT,TLE_LINE0,TLE_LINE1,TLE_LINE2,SEMIMAJOR_AXIS,PERIOD,APOGEE,PERIGEE,DECAYED
54766.0,STARLINK-5471,PAYLOAD,2023-03-19 20:18:35,15.08856706,0.0001172,53.2161,238.6492,86.9235,273.1891,0.0016011,0.00025297,0.0,0 STARLINK-5471,1 54766U 22175J   23078.84624944  .00025297  00000-0  16011-2 0  9992,2 54766  53.2161 238.6492 0001172  86.9235 273.1891 15.08856706 15997,6917.829,95.436,540.505,538.884,0.0
54766.0,STARLINK-5471,PAYLOAD,2023-03-20 13:47:50,15.08843773,0.000124,53.2163,235.377,92.8562,267.2572,0.0012108,0.00019036,0.0,0 STARLINK-5471,1 54766U 22175J   23079.57489509  .00019036  00000-0  12108-2 0  9996,2 54766  53.2163 235.3770 0001240  92.8562 267.2572 15.08843773 13940,6917.869,95.437,540.592,538.876,0.0
54766.0,STARLINK-5471,PAYLOAD,2023-03-20 16:58:37,15.08844363,0.0001324,53.2161,234.7823,72.1878,287.9259,0.001207,0.00018976,0.0,0 STARLINK-5471,1 54766U 22175J   23079.70737594  .00018976  00000-0  12070-2 0  9991,2 54766  53.2161 234.7823 0001324  72.1878 287.9259 15.08844363 16124,6917.867,95.437,540.648,538.816,0.0
54766.0,STARLINK-5471,PAYLOAD,2023-03-20 20:09:23,15.08850018,0.0001299,53.2168,234.1884,68.2592,291.8538,0.0012724,0.00020026,0.0,0 STARLINK-5471,1 54766U 22175J   23079.83985491  .00020026  00000-0  12724-2 0  9991,2 54766  53.2168 234.1884 0001299  68.2592 291.8538 15.08850018 16142,6917.85,95.437,540.613,538.816,0.0
54766.0,STARLINK-5471,PAYLOAD,2023-03-21 13:38:37,15.08856836,0.0001203,53.2173,230.9171,81.7266,278.3863,0.0013099,0.0002063,0.0,0 STARLINK-5471,1 54766U 22175J   23080.56849221  .00020630  00000-0  13099-2 0  9990,2 54766  53.2173 230.9171 0001203  81.7266 278.3863 15.08856836 14091,6917.829,95.436,540.526,538.862,0.0
54766.0,STARLINK-5471,PAYLOAD,2023-03-22 02:21:42,15.08856148,0.0001108,53.2175,228.5376,51.6653,308.4439,0.00061383,9.499e-05,0.0,0 STARLINK-5471,1 54766U 22175J   23081.09840833  .00009499  00000-0  61383-3 0  9999,2 54766  53.2175 228.5376 0001108  51.6653 308.4439 15.08856148 14172,6917.831,95.437,540.463,538.93,0.0
54766.0,STARLINK-5471,PAYLOAD,2023-03-22 13:29:24,15.08842133,0.0001717,53.2194,226.4601,112.735,247.3824,0.00018997,2.737e-05,0.0,0 STARLINK-5471,1 54766U 22175J   23081.56209058  .00002737  00000-0  18997-3 0  9990,2 54766  53.2194 226.4601 0001717 112.7350 247.3824 15.08842133 14246,6917.874,95.437,540.927,538.551,0.0
54766.0,STARLINK-5471,PAYLOAD,2023-03-22 16:40:10,15.08843536,0.0001386,53.2191,225.8673,99.5424,260.5725,1.8067e-05,0.0,0.0,0 STARLINK-5471,1 54766U 22175J   23081.69456999  .00000000  00000-0  18067-4 0  9992,2 54766  53.2191 225.8673 0001386  99.5424 260.5725 15.08843536 16428,6917.87,95.437,540.693,538.776,0.0
54766.0,STARLINK-5471,PAYLOAD,2023-03-23 13:20:12,15.08837962,0.0001707,53.217,221.9933,79.2607,280.8577,-3.0994e-05,-7.81e-06,0.0,0 STARLINK-5471,1 54766U 22175J   23082.55569446 -.00000781  00000-0 -30994-4 0  9991,2 54766  53.2170 221.9933 0001707  79.2607 280.8577 15.08837962 14396,6917.887,95.438,540.933,538.571,0.0
54766.0,STARLINK-5471,PAYLOAD,2023-03-23 16:30:57,15.08842177,0.0001522,53.2175,221.4077,125.6271,234.4864,9.8777e-05,1.284e-05,0.0,0 STARLINK-5471,1 54766U 22175J   23082.68817081  .00001284  00000-0  98777-4 0  9996,2 54766  53.2175 221.4077 0001522 125.6271 234.4864 15.08842177 16573,6917.874,95.437,540.792,538.686,0.0
54766.0,STARLINK-5471,PAYLOAD,2023-03-24 02:03:16,15.08854701,0.0001206,53.2186,219.6203,93.5085,266.6045,0.00037659,5.713e-05,0.0,0 STARLINK-5471,1 54766U 22175J   23083.08560562  .00005713  00000-0  37659-3 0  9992,2 54766  53.2186 219.6203 0001206  93.5085 266.6045 15.08854701 14471,6917.835,95.437,540.535,538.866,0.0
54766.0,STARLINK-5471,PAYLOAD,2023-03-24 13:10:56,15.08881989,0.0001027,53.2158,217.5374,96.7794,263.3315,0.00089868,0.0001406,0.0,0 STARLINK-5471,1 54766U 22175J   23083.54927018  .00014060  00000-0  89868-3 0  9990,2 54766  53.2158 217.5374 0001027  96.7794 263.3315 15.08881989 16709,6917.752,95.435,540.328,538.907,0.0
54766.0,STARLINK-5471,PAYLOAD,2023-03-24 16:21:42,15.08904563,0.0001205,53.2173,216.9406,88.8401,271.2729,0.0016056,0.00025403,0.0,0 STARLINK-5471,1 54766U 22175J   23083.68174092  .00025403  00000-0  16056-2 0  9992,2 54766  53.2173 216.9406 0001205  88.8401 271.2729 15.08904563 14563,6917.683,95.433,540.382,538.714,0.0
54766.0,STARLINK-5471,PAYLOAD,2023-03-24 21:07:50,15.08916775,0.0001273,53.2168,216.0482,111.9752,248.1375,0.0016324,0.00025842,0.0,0 STARLINK-5471,1 54766U 22175J   23083.88044951  .00025842  00000-0  16324-2 0  9999,2 54766  53.2168 216.0482 0001273 111.9752 248.1375 15.08916775 16755,6917.646,95.433,540.391,538.63,0.0
54766.0,STARLINK-5471,PAYLOAD,2023-03-25 01:54:02,15.08801307,0.0002032,53.2171,215.1575,93.4323,266.6901,-0.0016515,-0.00026449,0.0,0 STARLINK-5471,1 54766U 22175J   23084.07919924 -.00026449  00000-0 -16515-2 0  9990,2 54766  53.2171 215.1575 0002032  93.4323 266.6901 15.08801307 14622,6917.999,95.44,541.269,538.458,0.0
54766.0,STARLINK-5471,PAYLOAD,2023-03-25 16:12:33,15.08753401,0.0001399,53.2166,212.4834,94.3369,265.7783,-0.0016384,-0.00026207,0.0,0 STARLINK-5471,1 54766U 22175J   23084.67538702 -.00026207  00000-0 -16384-2 0  9993,2 54766  53.2166 212.4834 0001399  94.3369 265.7783 15.08753401 14718,6918.145,95.443,540.978,539.042,0.0
54766.0,STARLINK-5471,PAYLOAD,2023-03-25 20:58:44,15.08731748,0.0001506,53.2157,211.5907,90.6628,269.4536,0.0014637,0.00023015,0.0,0 STARLINK-5471,1 54766U 22175J   23084.87412727  .00023015  00000-0  14637-2 0  9994,2 54766  53.2157 211.5907 0001506  90.6628 269.4536 15.08731748 16906,6918.211,95.444,541.118,539.034,0.0
54766.0,STARLINK-5471,PAYLOAD,2023-03-26 01:44:53,15.08780074,0.0001055,53.2171,210.7001,75.9621,284.1488,0.0023415,0.00037112,0.0,0 STARLINK-5471,1 54766U 22175J   23085.07284526  .00037112  00000-0  23415-2 0  9998,2 54766  53.2171 210.7001 0001055  75.9621 284.1488 15.08780074 14775,6918.064,95.441,540.658,539.199,0.0
54766.0,STARLINK-5471,PAYLOAD,2023-03-26 12:52:35,15.08868902,0.0001019,53.2169,208.6163,73.1748,286.9356,0.0024688,0.00039253,0.0,0 STARLINK-5471,1 54766U 22175J   23085.53651946  .00039253  00000-0  24688-2 0  9994,2 54766  53.2169 208.6163 0001019  73.1748 286.9356 15.08868902 14846,6917.792,95.436,540.362,538.952,0.0
54766.0,STARLINK-5471,PAYLOAD,2023-03-26 19:14:07,15.08908605,0.0001874,53.2161,207.4357,44.4746,315.6397,0.0034338,0.0005489,0.0,0 STARLINK-5471,1 54766U 22175J   23085.80147287  .00054890  00000-0  34338-2 0  9999,2 54766  53.2161 207.4357 0001874  44.4746 315.6397 15.08908605 17043,6917.671,95.433,540.832,538.239,0.0
54766.0,STARLINK-5471,PAYLOAD,2023-03-27 01:35:38,15.08920999,0.00014,53.2162,206.2375,71.5718,288.5426,0.0027032,0.00043093,0.0,0 STARLINK-5471,1 54766U 22175J   23086.06641691  .00043093  00000-0  27032-2 0  9992,2 54766  53.2162 206.2375 0001400  71.5718 288.5426 15.08920999 14921,6917.633,95.432,540.466,538.529,0.0
54766.0,STARLINK-5471,PAYLOAD,2023-03-27 12:43:21,15.08867053,0.0001125,53.2163,204.1556,102.8486,257.2632,0.0018612,0.00029479,0.0,0 STARLINK-5471,1 54766U 22175J   23086.53010612  .00029479  00000-0  18612-2 0  9993,2 54766  53.2163 204.1556 0001125 102.8486 257.2632 15.08867053 14994,6917.798,95.436,540.441,538.884,0.0
54766.0,STARLINK-5471,PAYLOAD,2023-03-27 14:18:44,15.08865622,0.0001091,53.2167,203.8621,90.6345,269.4772,0.0019443,0.00030813,0.0,0 STARLINK-5471,1 54766U 22175J   23086.59634669  .00030813  00000-0  19443-2 0  9990,2 54766  53.2167 203.8621 0001091  90.6345 269.4772 15.08865622 17169,6917.802,95.436,540.422,538.912,0.0
54766.0,STARLINK-5471,PAYLOAD,2023-03-27 19:04:53,15.08874003,0.0001234,53.2176,202.9658,85.7881,274.3252,0.0018309,0.00028998,0.0,0 STARLINK-5471,1 54766U 22175J   23086.79506284  .00028998  00000-0  18309-2 0  9994,2 54766  53.2176 202.9658 0001234  85.7881 274.3252 15.08874003 17192,6917.776,95.435,540.495,538.788,0.0
54766.0,STARLINK-5471,PAYLOAD,2023-03-28 14:09:31,15.08866491,0.0001233,53.2168,199.3976,84.0566,276.0566,0.0019806,0.00031397,0.0,0 STARLINK-5471,1 54766U 22175J   23087.58994218  .00031397  00000-0  19806-2 0  9990,2 54766  53.2168 199.3976 0001233  84.0566 276.0566 15.08866491 15159,6917.799,95.436,540.517,538.811,0.0
54766.0,STARLINK-5471,PAYLOAD,2023-03-28 18:55:40,15.08882345,0.000125,53.2169,198.5038,87.5627,272.5508,0.0024332,0.00038694,0.0,0 STARLINK-5471,1 54766U 22175J   23087.78865745  .00038694  00000-0  24332-2 0  9991,2 54766  53.2169 198.5038 0001250  87.5627 272.5508 15.08882345 17341,6917.751,95.435,540.481,538.751,0.0
54766.0,STARLINK-5471,PAYLOAD,2023-03-29 07:38:45,15.08836282,0.0001096,53.2169,196.1271,95.5833,264.5284,0.0017646,0.00027904,0.0,0 STARLINK-5471,1 54766U 22175J   23088.31858366  .00027904  00000-0  17646-2 0  9994,2 54766  53.2169 196.1271 0001096  95.5833 264.5284 15.08836282 15260,6917.892,95.438,540.515,538.999,0.0
54766.0,STARLINK-5471,PAYLOAD,2023-03-29 12:24:54,15.08859397,0.0001158,53.2167,195.235,79.6393,280.4729,0.0022835,0.0003626,0.0,0 STARLINK-5471,1 54766U 22175J   23088.51730168  .00036260  00000-0  22835-2 0  9996,2 54766  53.2167 195.2350 0001158  79.6393 280.4729 15.08859397 17455,6917.821,95.436,540.487,538.885,0.0
54766.0,STARLINK-5471,PAYLOAD,2023-03-29 18:46:26,15.08881868,0.0001271,53.2172,194.0442,84.3061,275.8076,0.0027539,0.00043864,0.0,0 STARLINK-5471,1 54766U 22175J   23088.78225646  .00043864  00000-0  27539-2 0  9999,2 54766  53.2172 194.0442 0001271  84.3061 275.8076 15.08881868 15337,6917.752,95.435,540.497,538.738,0.0
54766.0,STARLINK-5471,PAYLOAD,2023-03-30 05:54:09,15.08834263,0.0001143,53.2168,191.9639,128.4976,231.6119,0.00033989,5.125e-05,0.0,0 STARLINK-5471,1 54766U 22175J   23089.24594088  .00005125  00000-0  33989-3 0  9995,2 54766  53.2168 191.9639 0001143 128.4976 231.6119 15.08834263 15402,6917.898,95.438,540.554,538.972,0.0
